{
  "type": "FeatureCollection",
  "features": [
    {
      "type": "Feature",
      "properties": {
        "norad_id": 31331,
        "name": "FENGYUN 1C DEB",
        "group": "fengyun-1c-debris",
        "lat": 62.73038016570475,
        "lon": -156.0280586924179,
        "alt_km": 881.6767077222585,
        "timestamp": "2025-12-06T07:31:40.518690+00:00",
        "meta_object_name": "FENGYUN 1C DEB",
        "meta_object_id": "1999-025BQK",
        "meta_epoch": "2025-12-03T20:40:48.549792",
        "meta_mean_motion": 14.00608302,
        "meta_eccentricity": 0.0053001,
        "meta_inclination": 98.8719,
        "meta_ra_of_asc_node": 3.9535,
        "meta_arg_of_pericenter": 207.2235,
        "meta_mean_anomaly": 152.615,
        "meta_ephemeris_type": 0,
        "meta_classification_type": "U",
        "meta_norad_cat_id": 31331,
        "meta_element_set_no": 999,
        "meta_rev_at_epoch": 63732,
        "meta_bstar": 0.00047073,
        "meta_mean_motion_dot": 6.66e-06,
        "meta_mean_motion_ddot": 0,
        "tle_line1": "1 31331U 99025BQK 25337.86167303  .00000666  00000+0  47073-3 0  9991",
        "tle_line2": "2 31331  98.8719   3.9535 0053001 207.2235 152.6150 14.00608302637325"
      },
      "geometry": {
        "type": "Point",
        "coordinates": [
          -156.0280586924179,
          62.73038016570475
        ]
      }
    },
    {
      "type": "Feature",
      "properties": {
        "norad_id": 31332,
        "name": "FENGYUN 1C DEB",
        "group": "fengyun-1c-debris",
        "lat": 35.029787390324536,
        "lon": -15.328376197939685,
        "alt_km": 814.7636195585274,
        "timestamp": "2025-12-06T07:31:40.518701+00:00",
        "meta_object_name": "FENGYUN 1C DEB",
        "meta_object_id": "1999-025BQL",
        "meta_epoch": "2025-12-03T12:02:49.078752",
        "meta_mean_motion": 14.11793945,
        "meta_eccentricity": 0.00502824,
        "meta_inclination": 98.7068,
        "meta_ra_of_asc_node": 348.1092,
        "meta_arg_of_pericenter": 51.2719,
        "meta_mean_anomaly": 101.942,
        "meta_ephemeris_type": 0,
        "meta_classification_type": "U",
        "meta_norad_cat_id": 31332,
        "meta_element_set_no": 999,
        "meta_rev_at_epoch": 95841,
        "meta_bstar": 0.001211905,
        "meta_mean_motion_dot": 2.194e-05,
        "meta_mean_motion_ddot": 0,
        "tle_line1": "1 31332U 99025BQL 25337.50195693  .00002194  00000+0  12119-2 0  9996",
        "tle_line2": "2 31332  98.7068 348.1092 0050282  51.2719 101.9420 14.11793945958419"
      },
      "geometry": {
        "type": "Point",
        "coordinates": [
          -15.328376197939685,
          35.029787390324536
        ]
      }
    },
    {
      "type": "Feature",
      "properties": {
        "norad_id": 31333,
        "name": "FENGYUN 1C DEB",
        "group": "fengyun-1c-debris",
        "lat": -81.56289695882218,
        "lon": 83.91021914924092,
        "alt_km": 860.8791847789034,
        "timestamp": "2025-12-06T07:31:40.518711+00:00",
        "meta_object_name": "FENGYUN 1C DEB",
        "meta_object_id": "1999-025BQM",
        "meta_epoch": "2025-11-27T18:34:18.195744",
        "meta_mean_motion": 14.2646395,
        "meta_eccentricity": 0.00993772,
        "meta_inclination": 98.4299,
        "meta_ra_of_asc_node": 346.9035,
        "meta_arg_of_pericenter": 70.1894,
        "meta_mean_anomaly": 290.9968,
        "meta_ephemeris_type": 0,
        "meta_classification_type": "U",
        "meta_norad_cat_id": 31333,
        "meta_element_set_no": 999,
        "meta_rev_at_epoch": 96378,
        "meta_bstar": 0.00071340675,
        "meta_mean_motion_dot": 1.769e-05,
        "meta_mean_motion_ddot": 0,
        "tle_line1": "1 31333U 99025BQM 25331.77382171  .00001769  00000+0  71341-3 0  9999",
        "tle_line2": "2 31333  98.4299 346.9035 0099377  70.1894 290.9968 14.26463950963786"
      },
      "geometry": {
        "type": "Point",
        "coordinates": [
          83.91021914924092,
          -81.56289695882218
        ]
      }
    },
    {
      "type": "Feature",
      "properties": {
        "norad_id": 31336,
        "name": "FENGYUN 1C DEB",
        "group": "fengyun-1c-debris",
        "lat": 79.83780648486683,
        "lon": -88.17517963578526,
        "alt_km": 705.3862267279837,
        "timestamp": "2025-12-06T07:31:40.518721+00:00",
        "meta_object_name": "FENGYUN 1C DEB",
        "meta_object_id": "1999-025BQQ",
        "meta_epoch": "2025-12-03T02:26:40.162272",
        "meta_mean_motion": 14.38666089,
        "meta_eccentricity": 0.00937673,
        "meta_inclination": 98.4662,
        "meta_ra_of_asc_node": 32.4606,
        "meta_arg_of_pericenter": 147.1631,
        "meta_mean_anomaly": 244.128,
        "meta_ephemeris_type": 0,
        "meta_classification_type": "U",
        "meta_norad_cat_id": 31336,
        "meta_element_set_no": 999,
        "meta_rev_at_epoch": 97652,
        "meta_bstar": 0.00045621257,
        "meta_mean_motion_dot": 1.427e-05,
        "meta_mean_motion_ddot": 0,
        "tle_line1": "1 31336U 99025BQQ 25337.10185373  .00001427  00000+0  45621-3 0  9993",
        "tle_line2": "2 31336  98.4662  32.4606 0093767 147.1631 244.1280 14.38666089976520"
      },
      "geometry": {
        "type": "Point",
        "coordinates": [
          -88.17517963578526,
          79.83780648486683
        ]
      }
    },
    {
      "type": "Feature",
      "properties": {
        "norad_id": 31338,
        "name": "FENGYUN 1C DEB",
        "group": "fengyun-1c-debris",
        "lat": 80.81158424560788,
        "lon": 108.89302518656001,
        "alt_km": 776.9640712670853,
        "timestamp": "2025-12-06T07:31:40.518735+00:00",
        "meta_object_name": "FENGYUN 1C DEB",
        "meta_object_id": "1999-025BQS",
        "meta_epoch": "2025-12-01T07:05:57.780096",
        "meta_mean_motion": 14.20532057,
        "meta_eccentricity": 0.00715092,
        "meta_inclination": 98.7164,
        "meta_ra_of_asc_node": 175.4621,
        "meta_arg_of_pericenter": 142.709,
        "meta_mean_anomaly": 217.9082,
        "meta_ephemeris_type": 0,
        "meta_classification_type": "U",
        "meta_norad_cat_id": 31338,
        "meta_element_set_no": 999,
        "meta_rev_at_epoch": 63495,
        "meta_bstar": 0.0029930987,
        "meta_mean_motion_dot": 6.56e-05,
        "meta_mean_motion_ddot": 0,
        "tle_line1": "1 31338U 99025BQS 25335.29580764  .00006560  00000+0  29931-2 0  9994",
        "tle_line2": "2 31338  98.7164 175.4621 0071509 142.7090 217.9082 14.20532057634951"
      },
      "geometry": {
        "type": "Point",
        "coordinates": [
          108.89302518656001,
          80.81158424560788
        ]
      }
    },
    {
      "type": "Feature",
      "properties": {
        "norad_id": 31339,
        "name": "FENGYUN 1C DEB",
        "group": "fengyun-1c-debris",
        "lat": -52.872178100658125,
        "lon": 8.84461519014552,
        "alt_km": 816.0549051142998,
        "timestamp": "2025-12-06T07:31:40.518748+00:00",
        "meta_object_name": "FENGYUN 1C DEB",
        "meta_object_id": "1999-025BQT",
        "meta_epoch": "2025-12-04T20:04:05.396448",
        "meta_mean_motion": 14.12128486,
        "meta_eccentricity": 0.0074504,
        "meta_inclination": 98.714,
        "meta_ra_of_asc_node": 355.7204,
        "meta_arg_of_pericenter": 347.9109,
        "meta_mean_anomaly": 12.0273,
        "meta_ephemeris_type": 0,
        "meta_classification_type": "U",
        "meta_norad_cat_id": 31339,
        "meta_element_set_no": 999,
        "meta_rev_at_epoch": 95566,
        "meta_bstar": 0.0018985595,
        "meta_mean_motion_dot": 3.534e-05,
        "meta_mean_motion_ddot": 0,
        "tle_line1": "1 31339U 99025BQT 25338.83617357  .00003534  00000+0  18986-2 0  9993",
        "tle_line2": "2 31339  98.7140 355.7204 0074504 347.9109  12.0273 14.12128486955662"
      },
      "geometry": {
        "type": "Point",
        "coordinates": [
          8.84461519014552,
          -52.872178100658125
        ]
      }
    },
    {
      "type": "Feature",
      "properties": {
        "norad_id": 31341,
        "name": "FENGYUN 1C DEB",
        "group": "fengyun-1c-debris",
        "lat": 76.19029281189708,
        "lon": -22.593117602532953,
        "alt_km": 697.1797440757791,
        "timestamp": "2025-12-06T07:31:40.518759+00:00",
        "meta_object_name": "FENGYUN 1C DEB",
        "meta_object_id": "1999-025BQV",
        "meta_epoch": "2025-12-04T08:58:12.545184",
        "meta_mean_motion": 14.53185482,
        "meta_eccentricity": 0.0053351,
        "meta_inclination": 99.556,
        "meta_ra_of_asc_node": 18.4602,
        "meta_arg_of_pericenter": 11.8375,
        "meta_mean_anomaly": 4.5957,
        "meta_ephemeris_type": 0,
        "meta_classification_type": "U",
        "meta_norad_cat_id": 31341,
        "meta_element_set_no": 999,
        "meta_rev_at_epoch": 97497,
        "meta_bstar": 0.0029917,
        "meta_mean_motion_dot": 0.00012592,
        "meta_mean_motion_ddot": 0,
        "tle_line1": "1 31341U 99025BQV 25338.37375631  .00012592  00000+0  29917-2 0  9991",
        "tle_line2": "2 31341  99.5560  18.4602 0053351  11.8375   4.5957 14.53185482974978"
      },
      "geometry": {
        "type": "Point",
        "coordinates": [
          -22.593117602532953,
          76.19029281189708
        ]
      }
    }
  ]
}